SITRO-AIS-18
1 61790U 24199BH  25332.21761828  .00003259  00000-0  29158-3 0  9995
2 61790  97.3360 179.2042 0007440  41.5282 318.6505 14.96477484101964
HADES-R (SO-124)
1 62690U 25009CK  25331.97566006  .00138168  00000-0  21507-2 0  9996
2 62690  97.3898  54.0898 0002463 225.5846 134.5206 15.53407408 48482
OTP-2
1 63235U 25052AB  25332.16726025  .00008413  00000-0  38420-3 0  9993
2 63235  97.4069 222.7572 0007678 135.6483 224.5369 15.20808043 39285
HADES-ICM (SO-125)
1 63492U 25052BN  25331.21320667  .00052683  00000-0  14491-2 0  9994
2 63492  97.4077 224.5769 0010835 114.7645 245.4728 15.36954763 39317
IONOSFERA-M 03
1 64876U 25155A   25332.21243622  .00000101  00000-0  65615-4 0  9995
2 64876  98.5762 294.4912 0002434  82.6135 277.5319 14.21435442 17854
IONOSFERA-M 04
1 64877U 25155B   25332.17712166  .00000111  00000-0  70094-4 0  9993
2 64877  98.5760 294.3767 0001804  78.8753 281.2628 14.21436466 17844
INNOSAT16 (RS92S7)
1 64878U 25155C   25331.96514702  .00004660  00000-0  20343-3 0  9990
2 64878  97.4315 295.4994 0011480 164.0782 196.0817 15.22567457 50021
GEOSCAN-6 (RS92S6)
1 64879U 25155D   25331.98010885  .00011644  00000-0  46794-3 0  9994
2 64879  97.4319 295.8026 0009051 154.3821 205.7867 15.25054097 50042
GEOSCAN 1 (RS92S1)
1 64880U 25155E   25331.97219008  .00012658  00000-0  50516-3 0  9996
2 64880  97.4323 295.8183 0008958 154.3874 205.7810 15.25268157 50048
239ALFEROV (RS61S)
1 64881U 25155F   25331.94151580  .00014918  00000-0  58111-3 0  9994
2 64881  97.4329 295.8782 0008647 153.2509 206.9177 15.26039895 50043
ASTROLINE-N1
1 64882U 25155G   25331.97578932  .00010950  00000-0  44173-3 0  9997
2 64882  97.4341 295.8271 0008440 154.2237 205.9422 15.24948622 50048
ASTROLINE-N2
1 64883U 25155H   25331.97626615  .00011560  00000-0  46546-3 0  9994
2 64883  97.4337 295.8197 0008614 152.9600 207.2088 15.24993661 50049
ASTROLINE-N3
1 64884U 25155J   25332.17381580  .00010564  00000-0  42641-3 0  9992
2 64884  97.4340 296.0228 0009207 153.2980 206.8733 15.24931563 50074
ASTROLINE-N4
1 64885U 25155K   25332.17617308  .00020582  00000-0  74543-3 0  9990
2 64885  97.4287 296.2539 0009118 140.7102 219.4801 15.28377754 50098
CSTP-4.3
1 64886U 25155L   25332.17405461  .00027765  00000-0  99863-3 0  9998
2 64886  97.4276 296.2512 0009227 141.0786 219.1120 15.28543058 50094
CSTP-4.2
1 64887U 25155M   25332.13946749  .00022364  00000-0  82742-3 0  9992
2 64887  97.4298 296.1770 0009134 141.1992 218.9905 15.27658927 50089
CSTP-4.1
1 64888U 25155N   25332.17083216  .00027164  00000-0  97393-3 0  9999
2 64888  97.4285 296.2680 0009162 138.3306 221.8633 15.28652186 50099
CSTP-4.4
1 64889U 25155P   25332.20243972  .00006797  00000-0  28398-3 0  9999
2 64889  97.4343 295.9892 0008229 151.0700 209.0995 15.23917966 50071
GEOSCAN 2 (RS92S2)
1 64890U 25155Q   25332.13683367  .00013318  00000-0  52564-3 0  9998
2 64890  97.4318 296.0458 0008785 141.0667 219.1205 15.25627398 50078
GEOSCAN-5 (RS92S5)
1 64891U 25155R   25332.17163806  .00016189  00000-0  62334-3 0  9999
2 64891  97.4324 296.1612 0007210 155.8384 204.3194 15.26419614 50085
GEOSCAN-4 (RS92S4)
1 64892U 25155S   25332.16935513  .00016475  00000-0  63317-3 0  9991
2 64892  97.4326 296.1673 0007213 156.4942 203.6627 15.26478147 50084
GEOSCAN-3 (RS92S3)
1 64893U 25155T   25332.14568289  .00019272  00000-0  72617-3 0  9993
2 64893  97.4321 296.1938 0006868 157.2310 202.9235 15.27103203 50083
INNOSAT3 (RS92S0)
1 64894U 25155U   25332.14525014  .00029564  00000-0  10425-2 0  9996
2 64894  97.4308 296.3388 0006456 153.9399 206.2167 15.29200222 50096
NAHID-2
1 64895U 25155V   25332.17257161  .00011081  00000-0  44692-3 0  9994
2 64895  97.4338 296.0159 0008293 152.3357 207.8323 15.24952574 50068
RSP-03
1 65732U 98067XL  25332.06571716  .00106782  00000-0  10761-2 0  9992
2 65732  51.6272 211.0556 0006939 168.0395 192.0766 15.64532307 10869
YOTSUBA-KULOVER
1 65941U 98067XN  25331.96183020  .00063351  00000-0  85806-3 0  9996
2 65941  51.6290 214.1133 0002404 143.1751 216.9406 15.57080418  7551
BOTAN
1 65942U 98067XP  25331.86575440  .00085231  00000-0  10549-2 0  9999
2 65942  51.6293 214.2225 0004606 145.4141 214.7153 15.59346667  7549
E-KAGAKU-1
1 65943U 98067XQ  25331.96158062  .00062641  00000-0  84931-3 0  9995
2 65943  51.6304 214.1133 0003875 126.2761 233.8589 15.57053935  7559
